FLOCK 4G-27             
1 62641U 25009AJ  26068.75406453  .00012587  00000+0  47455-3 0  9991
2 62641  97.3976 150.8631 0000756 322.4974  37.6212 15.27199247 63710
STARLINK-34054          
1 64141U 25111U   26068.42419102  .00020027  00000+0  73505-3 0  9994
2 64141  43.0041  79.2911 0001442 268.6319  91.4367 15.27592397 45420
